[{"OBJECT_NAME":"STARLINK-5042","OBJECT_ID":"2022-119P","EPOCH":"2026-03-09T23:48:31.662432","MEAN_MOTION":15.08836566,"ECCENTRICITY":0.00012098,"INCLINATION":53.2187,"RA_OF_ASC_NODE":322.5242,"ARG_OF_PERICENTER":96.2694,"MEAN_ANOMALY":263.8436,"EPHEMERIS_TYPE":0,"CLASSIFICATION_TYPE":"U","NORAD_CAT_ID":53899,"ELEMENT_SET_NO":999,"REV_AT_EPOCH":19173,"BSTAR":-4.44313e-6,"MEAN_MOTION_DOT":-3.59e-6,"MEAN_MOTION_DDOT":0},{"OBJECT_NAME":"COSMOS 2251 DEB","OBJECT_ID":"1993-036BLZ","EPOCH":"2026-03-06T21:00:05.608224","MEAN_MOTION":14.97960044,"ECCENTRICITY":0.00597249,"INCLINATION":73.9479,"RA_OF_ASC_NODE":151.0759,"ARG_OF_PERICENTER":149.7591,"MEAN_ANOMALY":210.7065,"EPHEMERIS_TYPE":0,"CLASSIFICATION_TYPE":"U","NORAD_CAT_ID":37496,"ELEMENT_SET_NO":999,"REV_AT_EPOCH":67275,"BSTAR":0.0022465948,"MEAN_MOTION_DOT":0.00027564,"MEAN_MOTION_DDOT":0}]
